     2.10           NAVIGATION                              RINEX VERSION / TYPE
rnw                 Dataflow Processing 04/14/2017 00:00:03 PGM / RUN BY / DATE
                                                            END OF HEADER
30 17  4 14 17 59 44.0  .158934388310D-03 -.682121026330D-12  .000000000000D+00
     .110000000000D+02  .953750000000D+02  .503842415630D-08 -.283475392510D+01
     .500120222569D-05  .263451854698D-02  .435486435890D-05  .515369472122D+04
     .496784000000D+06 -.186264514923D-08  .155525055322D+01 -.223517417908D-07
     .948269173640D+00  .293156250000D+03  .305471178775D+01 -.842535094969D-08
     .295369446180D-09  .100000000000D+01  .194400000000D+04  .000000000000D+00
     .240000000000D+01  .000000000000D+00  .372529029846D-08  .110000000000D+02
     .494676000000D+06  .400000000000D+01
30 17  4 14 17 59 44.0  .158934388310D-03 -.682121026330D-12  .000000000000D+00
     .110000000000D+02  .953750000000D+02  .503842415630D-08 -.283475392510D+01
     .500120222569D-05  .263451854698D-02  .435486435890D-05  .515369472122D+04
     .496784000000D+06 -.186264514923D-08  .155525055322D+01 -.223517417908D-07
     .948269173640D+00  .293156250000D+03  .305471178775D+01 -.842535094969D-08
     .295369446180D-09  .100000000000D+01  .194400000000D+04  .000000000000D+00
     .240000000000D+01  .000000000000D+00  .372529029846D-08  .110000000000D+02
     .494676000000D+06  .400000000000D+01
 2 17  4 14 20  0  0.0  .439408235252D-03 -.738964445191D-11  .000000000000D+00
     .112000000000D+03  .306250000000D+02  .511057001861D-08 -.836577934006D+00
     .178255140781D-05  .167828238336D-01  .760145485401D-05  .515376366425D+04
     .504000000000D+06 -.316649675369D-07 -.169435469791D+01  .357627868652D-06
     .945604408379D+00  .228906250000D+03 -.199114393991D+01 -.854035574010D-08
     .383944564261D-09  .100000000000D+01  .194400000000D+04  .000000000000D+00
     .240000000000D+01  .000000000000D+00 -.204890966415D-07  .112000000000D+03
     .496806000000D+06  .400000000000D+01
 4 17  4 14 20  0  0.0  .189384445548D-05  .568434188608D-12  .000000000000D+00
     .830000000000D+02 -.584062500000D+02  .559416159071D-08  .205616571850D+01
    -.315718352795D-05  .914464285597D-02  .386312603951D-05  .515374378967D+04
     .504000000000D+06 -.135973095894D-06  .256769386730D+01 -.122934579849D-06
     .982178281999D+00  .318437500000D+03  .891522676435D+00 -.806747890002D-08
    -.222152110670D-09  .100000000000D+01  .194400000000D+04  .000000000000D+00
     .340000000000D+01  .630000000000D+02 -.195577740669D-07  .830000000000D+02
     .496806000000D+06  .400000000000D+01
 5 17  4 14 20  0  0.0 -.506904907525D-04  .181898940355D-11  .000000000000D+00
     .370000000000D+02 -.262500000000D+02  .509128350097D-08  .176764246104D+01
    -.135414302349D-05  .492524681613D-02  .606477260590D-05  .515371719170D+04
     .504000000000D+06 -.614672899246D-07 -.615468133084D+00  .130385160446D-07
     .946752326549D+00  .257093750000D+03  .540772703365D+00 -.833320425426D-08
    -.306798493674D-09  .100000000000D+01  .194400000000D+04  .000000000000D+00
     .240000000000D+01  .000000000000D+00 -.107102096081D-07  .370000000000D+02
     .496806000000D+06  .400000000000D+01
 6 17  4 14 20  0  0.0  .337928533554D-03  .500222085975D-11  .000000000000D+00
     .120000000000D+02  .274375000000D+02  .450018745087D-08 -.999303970530D+00
     .143237411976D-05  .807806849480D-03  .753439962864D-05  .515364854431D+04
     .504000000000D+06  .111758708954D-07 -.165025817037D+01  .108033418655D-06
     .966456803182D+00  .239343750000D+03 -.120657917169D+01 -.800569061201D-08
     .415017287136D-09  .100000000000D+01  .194400000000D+04  .000000000000D+00
     .240000000000D+01  .000000000000D+00  .465661287308D-08  .120000000000D+02
     .496806000000D+06  .400000000000D+01
 7 17  4 14 20  0  0.0  .362380407751D-03 -.409272615798D-11  .000000000000D+00
     .530000000000D+02  .834375000000D+02  .463483591666D-08 -.179095396554D+01
     .415183603764D-05  .102979212534D-01  .462867319584D-05  .515374812508D+04
     .504000000000D+06  .100582838058D-06  .151563155125D+01 -.689178705215D-07
     .962544657414D+00  .289625000000D+03 -.260790079264D+01 -.815248244076D-08
     .401445293236D-09  .100000000000D+01  .194400000000D+04  .000000000000D+00
     .240000000000D+01  .000000000000D+00 -.111758708954D-07  .530000000000D+02
     .496806000000D+06  .400000000000D+01
 9 17  4 14 20  0  0.0  .342889223248D-03  .784439180279D-11  .000000000000D+00
     .800000000000D+01  .329375000000D+02  .439875465436D-08  .103399168046D+01
     .175274908543D-05  .826624804176D-03  .104103237391D-04  .515365964127D+04
     .504000000000D+06 -.167638063431D-07  .437004334002D+00  .111758708954D-07
     .954136420183D+00  .173187500000D+03  .186787936079D+01 -.793533053837D-08
    -.967897459671D-10  .100000000000D+01  .194400000000D+04  .000000000000D+00
     .240000000000D+01  .000000000000D+00  .139698386192D-08  .800000000000D+01
     .496806000000D+06  .400000000000D+01
16 17  4 14 20  0  0.0  .313189812005D-04  .795807864051D-12  .000000000000D+00
     .520000000000D+02 -.602812500000D+02  .418374569837D-08  .189740936870D+01
    -.304728746414D-05  .936014903709D-02  .449642539024D-05  .515367814827D+04
     .504000000000D+06 -.165775418282D-06  .261820521748D+01  .141561031342D-06
     .989937959370D+00  .312687500000D+03  .431521571588D+00 -.803033449566D-08
    -.281797452281D-09  .100000000000D+01  .194400000000D+04  .000000000000D+00
     .240000000000D+01  .000000000000D+00 -.107102096081D-07  .520000000000D+02
     .496806000000D+06  .400000000000D+01
23 17  4 14 20  0  0.0 -.209806021303D-03 -.795807864051D-12  .000000000000D+00
     .640000000000D+02  .345625000000D+02  .470198157069D-08 -.351188036574D+00
     .195764005184D-05  .115185531322D-01  .102072954178D-04  .515377042007D+04
     .504000000000D+06  .670552253723D-07  .439224423369D+00  .188127160072D-06
     .945011449646D+00  .176187500000D+03 -.248009531726D+01 -.822677124947D-08
    -.953611150304D-10  .100000000000D+01  .194400000000D+04  .000000000000D+00
     .240000000000D+01  .000000000000D+00 -.204890966415D-07  .640000000000D+02
     .496806000000D+06  .400000000000D+01
26 17  4 14 20  0  0.0 -.513337552547D-03  .272848410532D-11  .000000000000D+00
     .100000000000D+03 -.517812500000D+02  .489841832450D-08  .275424186873D+01
    -.267848372459D-05  .182213832159D-02  .340677797794D-05  .515368501472D+04
     .504000000000D+06 -.335276126862D-07  .252993672117D+01  .484287738800D-07
     .959145273211D+00  .314093750000D+03  .584565621276D-01 -.836856286995D-08
    -.193579491934D-09  .100000000000D+01  .194400000000D+04  .000000000000D+00
     .240000000000D+01  .000000000000D+00  .745058059692D-08  .100000000000D+03
     .496806000000D+06  .400000000000D+01
29 17  4 14 20  0  0.0  .612548552454D-03 -.306954461848D-11  .000000000000D+00
     .390000000000D+02 -.670000000000D+02  .377265714631D-08  .291929231238D+01
    -.362470746040D-05  .705725979060D-03  .109430402517D-04  .515365343285D+04
     .504000000000D+06 -.149011611938D-07 -.263744852381D+01  .558793544769D-08
     .980931281851D+00  .177718750000D+03  .109255580511D+00 -.762174604774D-08
    -.396445084958D-10  .100000000000D+01  .194400000000D+04  .000000000000D+00
     .240000000000D+01  .000000000000D+00 -.977888703346D-08  .390000000000D+02
     .496806000000D+06  .400000000000D+01
30 17  4 14 19 59 44.0  .158929731697D-03 -.682121026330D-12  .000000000000D+00
     .120000000000D+02  .818750000000D+02  .503235247482D-08 -.178510087273D+01
     .406242907047D-05  .263583299238D-02  .442937016487D-05  .515369114876D+04
     .503984000000D+06  .167638063431D-07  .155518989771D+01 -.149011611938D-07
     .948271312426D+00  .291312500000D+03  .305523168835D+01 -.842392231875D-08
     .300726812193D-09  .100000000000D+01  .194400000000D+04  .000000000000D+00
     .240000000000D+01  .000000000000D+00  .372529029846D-08  .120000000000D+02
     .496806000000D+06  .400000000000D+01
 2 17  4 14 20  0  0.0  .439408235252D-03 -.738964445191D-11  .000000000000D+00
     .112000000000D+03  .306250000000D+02  .511057001861D-08 -.836577934006D+00
     .178255140781D-05  .167828238336D-01  .760145485401D-05  .515376366425D+04
     .504000000000D+06 -.316649675369D-07 -.169435469791D+01  .357627868652D-06
     .945604408379D+00  .228906250000D+03 -.199114393991D+01 -.854035574010D-08
     .383944564261D-09  .100000000000D+01  .194400000000D+04  .000000000000D+00
     .240000000000D+01  .000000000000D+00 -.204890966415D-07  .112000000000D+03
     .496806000000D+06  .400000000000D+01
 4 17  4 14 20  0  0.0  .189384445548D-05  .568434188608D-12  .000000000000D+00
     .830000000000D+02 -.584062500000D+02  .559416159071D-08  .205616571850D+01
    -.315718352795D-05  .914464285597D-02  .386312603951D-05  .515374378967D+04
     .504000000000D+06 -.135973095894D-06  .256769386730D+01 -.122934579849D-06
     .982178281999D+00  .318437500000D+03  .891522676435D+00 -.806747890002D-08
    -.222152110670D-09  .100000000000D+01  .194400000000D+04  .000000000000D+00
     .340000000000D+01  .630000000000D+02 -.195577740669D-07  .830000000000D+02
     .496806000000D+06  .400000000000D+01
 5 17  4 14 20  0  0.0 -.506904907525D-04  .181898940355D-11  .000000000000D+00
     .370000000000D+02 -.262500000000D+02  .509128350097D-08  .176764246104D+01
    -.135414302349D-05  .492524681613D-02  .606477260590D-05  .515371719170D+04
     .504000000000D+06 -.614672899246D-07 -.615468133084D+00  .130385160446D-07
     .946752326549D+00  .257093750000D+03  .540772703365D+00 -.833320425426D-08
    -.306798493674D-09  .100000000000D+01  .194400000000D+04  .000000000000D+00
     .240000000000D+01  .000000000000D+00 -.107102096081D-07  .370000000000D+02
     .496806000000D+06  .400000000000D+01
